[{"OBJECT_NAME":"IRIDIUM 128","OBJECT_ID":"2017-039J","EPOCH":"2026-03-09T22:17:06.660384","MEAN_MOTION":14.3421733,"ECCENTRICITY":0.00019867,"INCLINATION":86.3911,"RA_OF_ASC_NODE":66.6445,"ARG_OF_PERICENTER":95.0823,"MEAN_ANOMALY":265.0599,"EPHEMERIS_TYPE":0,"CLASSIFICATION_TYPE":"U","NORAD_CAT_ID":42811,"ELEMENT_SET_NO":999,"REV_AT_EPOCH":45575,"BSTAR":-1.154861e-5,"MEAN_MOTION_DOT":-1.3e-7,"MEAN_MOTION_DDOT":0},{"OBJECT_NAME":"COSMOS 540","OBJECT_ID":"1972-104A","EPOCH":"2026-03-09T22:18:09.881856","MEAN_MOTION":14.37475414,"ECCENTRICITY":0.00187968,"INCLINATION":74.0789,"RA_OF_ASC_NODE":281.8264,"ARG_OF_PERICENTER":272.7333,"MEAN_ANOMALY":87.1669,"EPHEMERIS_TYPE":0,"CLASSIFICATION_TYPE":"U","NORAD_CAT_ID":6323,"ELEMENT_SET_NO":999,"REV_AT_EPOCH":78475,"BSTAR":5.5602782e-5,"MEAN_MOTION_DOT":1.41e-6,"MEAN_MOTION_DDOT":0}]
